IRIDIUM 7 [-]           
1 24793U 97020B   24013.60515294  .00000642  00000+0  21861-3 0  9997
2 24793  86.3944  34.9572 0002373  86.0042 274.1426 14.35036833397210
IRIDIUM 5 [-]           
1 24795U 97020D   24013.34369397  .00004906  00000+0  48505-3 0  9992
2 24795  86.3955 322.0254 0124896 194.0942 165.6788 14.85934071407916
IRIDIUM 4 [-]           
1 24796U 97020E   24013.57209433  .00000658  00000+0  22009-3 0  9993
2 24796  86.3943  32.1949 0002371  91.8231 268.3237 14.35946502397737
IRIDIUM 914 [-]         
1 24836U 97030A   24013.60097061  .00000740  00000+0  22973-3 0  9997
2 24836  86.3916  42.3094 0003757 111.9722 248.1876 14.39779258532196
IRIDIUM 16 [-]          
1 24841U 97030F   24013.55733807  .00000747  00000+0  24214-3 0  9999
2 24841  86.4009  63.9143 0002243  37.7142 322.4213 14.37665990392178
IRIDIUM 911 [-]         
1 24842U 97030G   24013.57932582  .00000909  00000+0  24825-3 0  9991
2 24842  86.4435  63.1617 0015612  39.8189 320.4156 14.46234297399801
IRIDIUM 17 [-]          
1 24870U 97034B   24013.28889219  .00000795  00000+0  26305-3 0  9990
2 24870  86.3951  93.6848 0000477  76.0503 284.0747 14.36761746388761
IRIDIUM 920 [-]         
1 24871U 97034C   24013.56113456  .00000766  00000+0  23460-3 0  9992
2 24871  86.3953  74.0015 0011623   9.8161 350.3263 14.40484735391604
